{
  "type": "FeatureCollection",
  "features": [
    {
      "type": "Feature",
      "properties": {
        "norad_id": 38067,
        "name": "COSMOS 2251 DEB",
        "group": "cosmos-2251-debris",
        "lat": 57.022562626280404,
        "lon": -49.624697198261075,
        "alt_km": 636.1926251039595,
        "timestamp": "2025-12-07T16:44:04.310965+00:00",
        "meta_object_name": "COSMOS 2251 DEB",
        "meta_object_id": "1993-036BRZ",
        "meta_epoch": "2025-11-29T04:46:36.876288",
        "meta_mean_motion": 14.61044936,
        "meta_eccentricity": 0.00691529,
        "meta_inclination": 74.017,
        "meta_ra_of_asc_node": 300.4181,
        "meta_arg_of_pericenter": 91.9303,
        "meta_mean_anomaly": 288.2542,
        "meta_ephemeris_type": 0,
        "meta_classification_type": "U",
        "meta_norad_cat_id": 38067,
        "meta_element_set_no": 999,
        "meta_rev_at_epoch": 62358,
        "meta_bstar": 0.00037425936,
        "meta_mean_motion_dot": 1.87e-05,
        "meta_mean_motion_ddot": 0,
        "tle_line1": "1 38067U 93036BRZ 25333.19903792  .00001870  00000+0  37426-3 0  9991",
        "tle_line2": "2 38067  74.0170 300.4181 0069152  91.9303 288.2542 14.61044936623583"
      },
      "geometry": {
        "type": "Point",
        "coordinates": [
          -49.624697198261075,
          57.022562626280404
        ]
      }
    },
    {
      "type": "Feature",
      "properties": {
        "norad_id": 38068,
        "name": "COSMOS 2251 DEB",
        "group": "cosmos-2251-debris",
        "lat": -71.00323544142677,
        "lon": -98.81947450207886,
        "alt_km": 789.1912131343806,
        "timestamp": "2025-12-07T16:44:04.310976+00:00",
        "meta_object_name": "COSMOS 2251 DEB",
        "meta_object_id": "1993-036BSA",
        "meta_epoch": "2025-11-26T00:12:22.263264",
        "meta_mean_motion": 14.35960004,
        "meta_eccentricity": 0.00240903,
        "meta_inclination": 74.0219,
        "meta_ra_of_asc_node": 338.9788,
        "meta_arg_of_pericenter": 72.1007,
        "meta_mean_anomaly": 288.2769,
        "meta_ephemeris_type": 0,
        "meta_classification_type": "U",
        "meta_norad_cat_id": 38068,
        "meta_element_set_no": 999,
        "meta_rev_at_epoch": 66406,
        "meta_bstar": 0.00028750999,
        "meta_mean_motion_dot": 8.11e-06,
        "meta_mean_motion_ddot": 0,
        "tle_line1": "1 38068U 93036BSA 25330.00859101  .00000811  00000+0  28751-3 0  9998",
        "tle_line2": "2 38068  74.0219 338.9788 0024090  72.1007 288.2769 14.35960004664064"
      },
      "geometry": {
        "type": "Point",
        "coordinates": [
          -98.81947450207886,
          -71.00323544142677
        ]
      }
    },
    {
      "type": "Feature",
      "properties": {
        "norad_id": 38197,
        "name": "COSMOS 2251 DEB",
        "group": "cosmos-2251-debris",
        "lat": -51.80608933193664,
        "lon": -14.534557505525608,
        "alt_km": 609.8179147256542,
        "timestamp": "2025-12-07T16:44:04.310986+00:00",
        "meta_object_name": "COSMOS 2251 DEB",
        "meta_object_id": "1993-036BSM",
        "meta_epoch": "2025-12-06T08:23:38.720544",
        "meta_mean_motion": 14.73443974,
        "meta_eccentricity": 0.01278233,
        "meta_inclination": 73.9374,
        "meta_ra_of_asc_node": 9.5906,
        "meta_arg_of_pericenter": 248.6573,
        "meta_mean_anomaly": 110.0918,
        "meta_ephemeris_type": 0,
        "meta_classification_type": "U",
        "meta_norad_cat_id": 38197,
        "meta_element_set_no": 999,
        "meta_rev_at_epoch": 85661,
        "meta_bstar": 0.0077538955,
        "meta_mean_motion_dot": 0.00057752,
        "meta_mean_motion_ddot": 0,
        "tle_line1": "1 38197U 93036BSM 25340.34975371  .00057752  00000+0  77539-2 0  9990",
        "tle_line2": "2 38197  73.9374   9.5906 0127823 248.6573 110.0918 14.73443974856612"
      },
      "geometry": {
        "type": "Point",
        "coordinates": [
          -14.534557505525608,
          -51.80608933193664
        ]
      }
    },
    {
      "type": "Feature",
      "properties": {
        "norad_id": 38199,
        "name": "COSMOS 2251 DEB",
        "group": "cosmos-2251-debris",
        "lat": -73.55558114342637,
        "lon": -32.38298868486778,
        "alt_km": 1022.8742850960261,
        "timestamp": "2025-12-07T16:44:04.310996+00:00",
        "meta_object_name": "COSMOS 2251 DEB",
        "meta_object_id": "1993-036BSP",
        "meta_epoch": "2025-12-05T22:57:07.005312",
        "meta_mean_motion": 13.64781865,
        "meta_eccentricity": 0.03693495,
        "meta_inclination": 73.9556,
        "meta_ra_of_asc_node": 73.3332,
        "meta_arg_of_pericenter": 1.1874,
        "meta_mean_anomaly": 359.0029,
        "meta_ephemeris_type": 0,
        "meta_classification_type": "U",
        "meta_norad_cat_id": 38199,
        "meta_element_set_no": 999,
        "meta_rev_at_epoch": 60929,
        "meta_bstar": 0.00068025629,
        "meta_mean_motion_dot": 8.5e-06,
        "meta_mean_motion_ddot": 0,
        "tle_line1": "1 38199U 93036BSP 25339.95633108  .00000850  00000+0  68026-3 0  9995",
        "tle_line2": "2 38199  73.9556  73.3332 0369349   1.1874 359.0029 13.64781865609296"
      },
      "geometry": {
        "type": "Point",
        "coordinates": [
          -32.38298868486778,
          -73.55558114342637
        ]
      }
    },
    {
      "type": "Feature",
      "properties": {
        "norad_id": 38208,
        "name": "COSMOS 2251 DEB",
        "group": "cosmos-2251-debris",
        "lat": 66.912393394516,
        "lon": 131.20541054664304,
        "alt_km": 611.4799050723532,
        "timestamp": "2025-12-07T16:44:04.311006+00:00",
        "meta_object_name": "COSMOS 2251 DEB",
        "meta_object_id": "1993-036BSY",
        "meta_epoch": "2025-12-05T14:19:12.971424",
        "meta_mean_motion": 14.83431595,
        "meta_eccentricity": 0.00033607,
        "meta_inclination": 74.0074,
        "meta_ra_of_asc_node": 93.0882,
        "meta_arg_of_pericenter": 176.5145,
        "meta_mean_anomaly": 202.8392,
        "meta_ephemeris_type": 0,
        "meta_classification_type": "U",
        "meta_norad_cat_id": 38208,
        "meta_element_set_no": 999,
        "meta_rev_at_epoch": 71053,
        "meta_bstar": 0.0048604025,
        "meta_mean_motion_dot": 0.00040129,
        "meta_mean_motion_ddot": 0,
        "tle_line1": "1 38208U 93036BSY 25339.59667791  .00040129  00000+0  48604-2 0  9993",
        "tle_line2": "2 38208  74.0074  93.0882 0003360 176.5145 202.8392 14.83431595710531"
      },
      "geometry": {
        "type": "Point",
        "coordinates": [
          131.20541054664304,
          66.912393394516
        ]
      }
    },
    {
      "type": "Feature",
      "properties": {
        "norad_id": 38212,
        "name": "COSMOS 2251 DEB",
        "group": "cosmos-2251-debris",
        "lat": 44.295331969515324,
        "lon": -109.71168131910558,
        "alt_km": 572.0112438762771,
        "timestamp": "2025-12-07T16:44:04.311016+00:00",
        "meta_object_name": "COSMOS 2251 DEB",
        "meta_object_id": "1993-036BTC",
        "meta_epoch": "2025-12-06T01:08:07.179648",
        "meta_mean_motion": 14.77609571,
        "meta_eccentricity": 0.00929618,
        "meta_inclination": 74.0526,
        "meta_ra_of_asc_node": 89.7222,
        "meta_arg_of_pericenter": 158.629,
        "meta_mean_anomaly": 201.8809,
        "meta_ephemeris_type": 0,
        "meta_classification_type": "U",
        "meta_norad_cat_id": 38212,
        "meta_element_set_no": 999,
        "meta_rev_at_epoch": 81211,
        "meta_bstar": 0.00094935233,
        "meta_mean_motion_dot": 7.267e-05,
        "meta_mean_motion_ddot": 0,
        "tle_line1": "1 38212U 93036BTC 25340.04730532  .00007267  00000+0  94935-3 0  9999",
        "tle_line2": "2 38212  74.0526  89.7222 0092961 158.6290 201.8809 14.77609571812118"
      },
      "geometry": {
        "type": "Point",
        "coordinates": [
          -109.71168131910558,
          44.295331969515324
        ]
      }
    },
    {
      "type": "Feature",
      "properties": {
        "norad_id": 38220,
        "name": "COSMOS 2251 DEB",
        "group": "cosmos-2251-debris",
        "lat": 9.57936470365012,
        "lon": 81.21418137732898,
        "alt_km": 590.5108614354358,
        "timestamp": "2025-12-07T16:44:04.311027+00:00",
        "meta_object_name": "COSMOS 2251 DEB",
        "meta_object_id": "1993-036BTL",
        "meta_epoch": "2025-12-06T00:28:04.464768",
        "meta_mean_motion": 14.92263375,
        "meta_eccentricity": 0.00038963,
        "meta_inclination": 74.0153,
        "meta_ra_of_asc_node": 81.8134,
        "meta_arg_of_pericenter": 78.0872,
        "meta_mean_anomaly": 282.0747,
        "meta_ephemeris_type": 0,
        "meta_classification_type": "U",
        "meta_norad_cat_id": 38220,
        "meta_element_set_no": 999,
        "meta_rev_at_epoch": 71270,
        "meta_bstar": 0.0049211275,
        "meta_mean_motion_dot": 0.00050569,
        "meta_mean_motion_ddot": 0,
        "tle_line1": "1 38220U 93036BTL 25340.01949612  .00050569  00000+0  49211-2 0  9995",
        "tle_line2": "2 38220  74.0153  81.8134 0003896  78.0872 282.0747 14.92263375712709"
      },
      "geometry": {
        "type": "Point",
        "coordinates": [
          81.21418137732898,
          9.57936470365012
        ]
      }
    }
  ]
}